{"type": "FeatureCollection", "features": [ {"type": "Feature", "properties": {"norad_id": 34141, "name": "COSMOS 2251 DEB", "group": "cosmos-2251-debris", "lat": 46.34184360287508, "lon": -174.6505416741212, "alt_km": 692.8390932162038, "timestamp": "2025-12-15T22:44:29.324113+00:00", "meta": {"OBJECT_NAME": "COSMOS 2251 DEB", "OBJECT_ID": "1993-036LN", "EPOCH": "2025-12-15T04:10:48.296640", "MEAN_MOTION": 14.49271336, "ECCENTRICITY": 0.00469849, "INCLINATION": 74.0115, "RA_OF_ASC_NODE": 24.2875, "ARG_OF_PERICENTER": 109.7748, "MEAN_ANOMALY": 307.6841, "EPHEMERIS_TYPE": 0, "CLASSIFICATION_TYPE": "U", "NORAD_CAT_ID": 34141, "ELEMENT_SET_NO": 999, "REV_AT_EPOCH": 87729, "BSTAR": 0.00093841025, "MEAN_MOTION_DOT": 3.603e-05, "MEAN_MOTION_DDOT": 0}, "tle": {"line1": "1 34141U 93036LN  25349.17417010  .00003603  00000+0  93841-3 0  9997", "line2": "2 34141  74.0115  24.2875 0046984 109.7748 307.6841 14.49271336877290"}}, "geometry": {"type": "Point", "coordinates": [-174.6505416741212, 46.34184360287508]}}, {"type": "Feature", "properties": {"norad_id": 34270, "name": "COSMOS 2251 DEB", "group": "cosmos-2251-debris", "lat": -73.96666966968952, "lon": -145.69181168742494, "alt_km": 717.1367383602046, "timestamp": "2025-12-15T22:44:29.324123+00:00", "meta": {"OBJECT_NAME": "COSMOS 2251 DEB", "OBJECT_ID": "1993-036LQ", "EPOCH": "2025-12-15T06:45:45.114624", "MEAN_MOTION": 14.65192964, "ECCENTRICITY": 0.0047824, "INCLINATION": 74.0113, "RA_OF_ASC_NODE": 301.7281, "ARG_OF_PERICENTER": 93.7279, "MEAN_ANOMALY": 266.936, "EPHEMERIS_TYPE": 0, "CLASSIFICATION_TYPE": "U", "NORAD_CAT_ID": 34270, "ELEMENT_SET_NO": 999, "REV_AT_EPOCH": 89133, "BSTAR": 0.00056810463, "MEAN_MOTION_DOT": 3.079e-05, "MEAN_MOTION_DDOT": 0}, "tle": {"line1": "1 34270U 93036LQ  25349.28177216  .00003079  00000+0  56810-3 0  9995", "line2": "2 34270  74.0113 301.7281 0047824  93.7279 266.9360 14.65192964891331"}}, "geometry": {"type": "Point", "coordinates": [-145.69181168742494, -73.96666966968952]}}, {"type": "Feature", "properties": {"norad_id": 34271, "name": "COSMOS 2251 DEB", "group": "cosmos-2251-debris", "lat": -70.15255533468071, "lon": 140.5464022425429, "alt_km": 654.5702586689631, "timestamp": "2025-12-15T22:44:29.324134+00:00", "meta": {"OBJECT_NAME": "COSMOS 2251 DEB", "OBJECT_ID": "1993-036LR", "EPOCH": "2025-12-15T07:34:34.161888", "MEAN_MOTION": 14.70821945, "ECCENTRICITY": 0.00187263, "INCLINATION": 74.0203, "RA_OF_ASC_NODE": 194.3223, "ARG_OF_PERICENTER": 248.1187, "MEAN_ANOMALY": 289.2535, "EPHEMERIS_TYPE": 0, "CLASSIFICATION_TYPE": "U", "NORAD_CAT_ID": 34271, "ELEMENT_SET_NO": 999, "REV_AT_EPOCH": 88272, "BSTAR": 0.0011155944, "MEAN_MOTION_DOT": 6.81e-05, "MEAN_MOTION_DDOT": 0}, "tle": {"line1": "1 34271U 93036LR  25349.31567317  .00006810  00000+0  11156-2 0  9994", "line2": "2 34271  74.0203 194.3223 0018726 248.1187 289.2535 14.70821945882726"}}, "geometry": {"type": "Point", "coordinates": [140.5464022425429, -70.15255533468071]}}, {"type": "Feature", "properties": {"norad_id": 34273, "name": "COSMOS 2251 DEB", "group": "cosmos-2251-debris", "lat": -10.723142009223041, "lon": -95.59811250800972, "alt_km": 683.5507920088676, "timestamp": "2025-12-15T22:44:29.324144+00:00", "meta": {"OBJECT_NAME": "COSMOS 2251 DEB", "OBJECT_ID": "1993-036LT", "EPOCH": "2025-12-15T09:02:44.972160", "MEAN_MOTION": 14.61254552, "ECCENTRICITY": 0.00139769, "INCLINATION": 74.0361, "RA_OF_ASC_NODE": 82.3851, "ARG_OF_PERICENTER": 208.4396, "MEAN_ANOMALY": 221.9539, "EPHEMERIS_TYPE": 0, "CLASSIFICATION_TYPE": "U", "NORAD_CAT_ID": 34273, "ELEMENT_SET_NO": 999, "REV_AT_EPOCH": 88660, "BSTAR": 0.0006682703, "MEAN_MOTION_DOT": 3.272e-05, "MEAN_MOTION_DDOT": 0}, "tle": {"line1": "1 34273U 93036LT  25349.37690940  .00003272  00000+0  66827-3 0  9996", "line2": "2 34273  74.0361  82.3851 0013976 208.4396 221.9539 14.61254552886601"}}, "geometry": {"type": "Point", "coordinates": [-95.59811250800972, -10.723142009223041]}}, {"type": "Feature", "properties": {"norad_id": 34274, "name": "COSMOS 2251 DEB", "group": "cosmos-2251-debris", "lat": -43.22764320575525, "lon": 46.74523437568566, "alt_km": 687.2755767854551, "timestamp": "2025-12-15T22:44:29.324154+00:00", "meta": {"OBJECT_NAME": "COSMOS 2251 DEB", "OBJECT_ID": "1993-036LU", "EPOCH": "2025-12-15T06:49:07.580928", "MEAN_MOTION": 14.64819312, "ECCENTRICITY": 0.00219259, "INCLINATION": 74.0046, "RA_OF_ASC_NODE": 63.6651, "ARG_OF_PERICENTER": 213.5399, "MEAN_ANOMALY": 203.7145, "EPHEMERIS_TYPE": 0, "CLASSIFICATION_TYPE": "U", "NORAD_CAT_ID": 34274, "ELEMENT_SET_NO": 999, "REV_AT_EPOCH": 88713, "BSTAR": 0.00072257815, "MEAN_MOTION_DOT": 3.841e-05, "MEAN_MOTION_DDOT": 0}, "tle": {"line1": "1 34274U 93036LU  25349.28411552  .00003841  00000+0  72258-3 0  9994", "line2": "2 34274  74.0046  63.6651 0021925 213.5399 203.7145 14.64819312887139"}}, "geometry": {"type": "Point", "coordinates": [46.74523437568566, -43.22764320575525]}}, {"type": "Feature", "properties": {"norad_id": 34276, "name": "COSMOS 2251 DEB", "group": "cosmos-2251-debris", "lat": 14.808036630175454, "lon": -105.12130819836452, "alt_km": 694.8457396801541, "timestamp": "2025-12-15T22:44:29.324164+00:00", "meta": {"OBJECT_NAME": "COSMOS 2251 DEB", "OBJECT_ID": "1993-036LW", "EPOCH": "2025-12-15T07:25:17.763168", "MEAN_MOTION": 14.57248925, "ECCENTRICITY": 0.00224931, "INCLINATION": 74.0237, "RA_OF_ASC_NODE": 80.4353, "ARG_OF_PERICENTER": 226.8989, "MEAN_ANOMALY": 190.4359, "EPHEMERIS_TYPE": 0, "CLASSIFICATION_TYPE": "U", "NORAD_CAT_ID": 34276, "ELEMENT_SET_NO": 999, "REV_AT_EPOCH": 88630, "BSTAR": 0.00057673607, "MEAN_MOTION_DOT": 2.587e-05, "MEAN_MOTION_DDOT": 0}, "tle": {"line1": "1 34276U 93036LW  25349.30923337  .00002587  00000+0  57674-3 0  9999", "line2": "2 34276  74.0237  80.4353 0022493 226.8989 190.4359 14.57248925886307"}}, "geometry": {"type": "Point", "coordinates": [-105.12130819836452, 14.808036630175454]}}, {"type": "Feature", "properties": {"norad_id": 34297, "name": "COSMOS 2251 DEB", "group": "cosmos-2251-debris", "lat": -57.35759993980627, "lon": -108.17659151575793, "alt_km": 767.9427929976764, "timestamp": "2025-12-15T22:44:29.324174+00:00", "meta": {"OBJECT_NAME": "COSMOS 2251 DEB", "OBJECT_ID": "1993-036MT", "EPOCH": "2025-12-15T06:52:03.645120", "MEAN_MOTION": 14.36631664, "ECCENTRICITY": 0.0017395, "INCLINATION": 74.0487, "RA_OF_ASC_NODE": 279.5564, "ARG_OF_PERICENTER": 347.6406, "MEAN_ANOMALY": 132.0811, "EPHEMERIS_TYPE": 0, "CLASSIFICATION_TYPE": "U", "NORAD_CAT_ID": 34297, "ELEMENT_SET_NO": 999, "REV_AT_EPOCH": 88101, "BSTAR": 0.00015349091, "MEAN_MOTION_DOT": 4.26e-06, "MEAN_MOTION_DDOT": 0}, "tle": {"line1": "1 34297U 93036MT  25349.28615330  .00000426  00000+0  15349-3 0  9993", "line2": "2 34297  74.0487 279.5564 0017395 347.6406 132.0811 14.36631664881014"}}, "geometry": {"type": "Point", "coordinates": [-108.17659151575793, -57.35759993980627]}}, {"type": "Feature", "properties": {"norad_id": 34299, "name": "COSMOS 2251 DEB", "group": "cosmos-2251-debris", "lat": 4.63549022737924, "lon": -31.47528601730921, "alt_km": 327.67879171321874, "timestamp": "2025-12-15T22:44:29.324184+00:00", "meta": {"OBJECT_NAME": "COSMOS 2251 DEB", "OBJECT_ID": "1993-036MV", "EPOCH": "2025-12-15T07:30:54.101952", "MEAN_MOTION": 15.7845491, "ECCENTRICITY": 0.00164887, "INCLINATION": 73.9736, "RA_OF_ASC_NODE": 328.6474, "ARG_OF_PERICENTER": 63.735, "MEAN_ANOMALY": 296.557, "EPHEMERIS_TYPE": 0, "CLASSIFICATION_TYPE": "U", "NORAD_CAT_ID": 34299, "ELEMENT_SET_NO": 999, "REV_AT_EPOCH": 89051, "BSTAR": 0.0050737037, "MEAN_MOTION_DOT": 0.0098946, "MEAN_MOTION_DDOT": 0}, "tle": {"line1": "1 34299U 93036MV  25349.31312618  .00989460  00000+0  50737-2 0  9995", "line2": "2 34299  73.9736 328.6474 0016488  63.7350 296.5570 15.78454910890510"}}, "geometry": {"type": "Point", "coordinates": [-31.47528601730921, 4.63549022737924]}}, {"type": "Feature", "properties": {"norad_id": 34301, "name": "COSMOS 2251 DEB", "group": "cosmos-2251-debris", "lat": 70.62494873605698, "lon": -145.0177393914734, "alt_km": 613.4710711476891, "timestamp": "2025-12-15T22:44:29.324195+00:00", "meta": {"OBJECT_NAME": "COSMOS 2251 DEB", "OBJECT_ID": "1993-036MX", "EPOCH": "2025-12-14T22:49:00.859296", "MEAN_MOTION": 14.84671361, "ECCENTRICITY": 0.00111476, "INCLINATION": 74.0046, "RA_OF_ASC_NODE": 162.3071, "ARG_OF_PERICENTER": 223.1829, "MEAN_ANOMALY": 290.0111, "EPHEMERIS_TYPE": 0, "CLASSIFICATION_TYPE": "U", "NORAD_CAT_ID": 34301, "ELEMENT_SET_NO": 999, "REV_AT_EPOCH": 88433, "BSTAR": 0.0018533089, "MEAN_MOTION_DOT": 0.00015703, "MEAN_MOTION_DDOT": 0}, "tle": {"line1": "1 34301U 93036MX  25348.95070439  .00015703  00000+0  18533-2 0  9998", "line2": "2 34301  74.0046 162.3071 0011147 223.1829 290.0111 14.84671361884336"}}, "geometry": {"type": "Point", "coordinates": [-145.0177393914734, 70.62494873605698]}}, {"type": "Feature", "properties": {"norad_id": 34302, "name": "COSMOS 2251 DEB", "group": "cosmos-2251-debris", "lat": 5.199286171399145, "lon": 119.18933098954187, "alt_km": 715.4738987995115, "timestamp": "2025-12-15T22:44:29.324206+00:00", "meta": {"OBJECT_NAME": "COSMOS 2251 DEB", "OBJECT_ID": "1993-036MY", "EPOCH": "2025-12-15T01:35:32.227872", "MEAN_MOTION": 14.39340626, "ECCENTRICITY": 0.00788886, "INCLINATION": 74.178, "RA_OF_ASC_NODE": 119.3227, "ARG_OF_PERICENTER": 333.902, "MEAN_ANOMALY": 146.8439, "EPHEMERIS_TYPE": 0, "CLASSIFICATION_TYPE": "U", "NORAD_CAT_ID": 34302, "ELEMENT_SET_NO": 999, "REV_AT_EPOCH": 87754, "BSTAR": 0.00050269029, "MEAN_MOTION_DOT": 1.594e-05, "MEAN_MOTION_DDOT": 0}, "tle": {"line1": "1 34302U 93036MY  25349.06634523  .00001594  00000+0  50269-3 0  9998", "line2": "2 34302  74.1780 119.3227 0078888 333.9020 146.8439 14.39340626877549"}}, "geometry": {"type": "Point", "coordinates": [119.18933098954187, 5.199286171399145]}}]}